{"type":"FeatureCollection","features":[
{"type":"Feature","properties":{"name":"Rotterdam","rank":1},"geometry":{"type":"Point","coordinates":[4.48,51.92]}},
{"type":"Feature","properties":{"name":"Antwerp","rank":2},"geometry":{"type":"Point","coordinates":[4.40,51.22]}},
{"type":"Feature","properties":{"name":"Hamburg","rank":2},"geometry":{"type":"Point","coordinates":[9.99,53.55]}},
{"type":"Feature","properties":{"name":"London","rank":2},"geometry":{"type":"Point","coordinates":[-0.13,51.51]}},
{"type":"Feature","properties":{"name":"Algeciras","rank":2},"geometry":{"type":"Point","coordinates":[-5.45,36.13]}},
{"type":"Feature","properties":{"name":"Tangier","rank":2},"geometry":{"type":"Point","coordinates":[-5.81,35.77]}},
{"type":"Feature","properties":{"name":"Marseille","rank":3},"geometry":{"type":"Point","coordinates":[5.37,43.30]}},
{"type":"Feature","properties":{"name":"Genoa","rank":3},"geometry":{"type":"Point","coordinates":[8.95,44.41]}},
{"type":"Feature","properties":{"name":"Piraeus","rank":2},"geometry":{"type":"Point","coordinates":[23.64,37.94]}},
{"type":"Feature","properties":{"name":"Istanbul","rank":1},"geometry":{"type":"Point","coordinates":[28.98,41.01]}},
{"type":"Feature","properties":{"name":"Port Said","rank":1},"geometry":{"type":"Point","coordinates":[32.30,31.27]}},
{"type":"Feature","properties":{"name":"Suez","rank":1},"geometry":{"type":"Point","coordinates":[32.55,29.97]}},
{"type":"Feature","properties":{"name":"Jeddah","rank":2},"geometry":{"type":"Point","coordinates":[39.19,21.49]}},
{"type":"Feature","properties":{"name":"Djibouti","rank":1},"geometry":{"type":"Point","coordinates":[43.15,11.59]}},
{"type":"Feature","properties":{"name":"Dubai · Jebel Ali","rank":1},"geometry":{"type":"Point","coordinates":[55.07,24.99]}},
{"type":"Feature","properties":{"name":"Karachi","rank":2},"geometry":{"type":"Point","coordinates":[67.01,24.86]}},
{"type":"Feature","properties":{"name":"Mumbai","rank":2},"geometry":{"type":"Point","coordinates":[72.88,19.08]}},
{"type":"Feature","properties":{"name":"Colombo","rank":1},"geometry":{"type":"Point","coordinates":[79.86,6.93]}},
{"type":"Feature","properties":{"name":"Chattogram","rank":3},"geometry":{"type":"Point","coordinates":[91.80,22.34]}},
{"type":"Feature","properties":{"name":"Port Klang","rank":1},"geometry":{"type":"Point","coordinates":[101.36,3.00]}},
{"type":"Feature","properties":{"name":"Singapore","rank":1},"geometry":{"type":"Point","coordinates":[103.82,1.26]}},
{"type":"Feature","properties":{"name":"Jakarta","rank":2},"geometry":{"type":"Point","coordinates":[106.85,-6.12]}},
{"type":"Feature","properties":{"name":"Surabaya","rank":3},"geometry":{"type":"Point","coordinates":[112.74,-7.25]}},
{"type":"Feature","properties":{"name":"Ho Chi Minh City","rank":3},"geometry":{"type":"Point","coordinates":[106.71,10.77]}},
{"type":"Feature","properties":{"name":"Manila","rank":2},"geometry":{"type":"Point","coordinates":[120.98,14.60]}},
{"type":"Feature","properties":{"name":"Hong Kong","rank":1},"geometry":{"type":"Point","coordinates":[114.17,22.29]}},
{"type":"Feature","properties":{"name":"Shenzhen","rank":2},"geometry":{"type":"Point","coordinates":[114.06,22.54]}},
{"type":"Feature","properties":{"name":"Guangzhou","rank":3},"geometry":{"type":"Point","coordinates":[113.27,23.13]}},
{"type":"Feature","properties":{"name":"Kaohsiung","rank":2},"geometry":{"type":"Point","coordinates":[120.30,22.62]}},
{"type":"Feature","properties":{"name":"Shanghai","rank":1},"geometry":{"type":"Point","coordinates":[121.48,31.23]}},
{"type":"Feature","properties":{"name":"Ningbo","rank":1},"geometry":{"type":"Point","coordinates":[121.55,29.87]}},
{"type":"Feature","properties":{"name":"Busan","rank":1},"geometry":{"type":"Point","coordinates":[129.04,35.10]}},
{"type":"Feature","properties":{"name":"Tokyo · Yokohama","rank":2},"geometry":{"type":"Point","coordinates":[139.72,35.55]}},
{"type":"Feature","properties":{"name":"Sydney","rank":2},"geometry":{"type":"Point","coordinates":[151.21,-33.86]}},
{"type":"Feature","properties":{"name":"Melbourne","rank":3},"geometry":{"type":"Point","coordinates":[144.94,-37.82]}},
{"type":"Feature","properties":{"name":"Auckland","rank":3},"geometry":{"type":"Point","coordinates":[174.76,-36.84]}},
{"type":"Feature","properties":{"name":"Vancouver","rank":2},"geometry":{"type":"Point","coordinates":[-123.12,49.28]}},
{"type":"Feature","properties":{"name":"Seattle · Tacoma","rank":3},"geometry":{"type":"Point","coordinates":[-122.36,47.40]}},
{"type":"Feature","properties":{"name":"Los Angeles · Long Beach","rank":1},"geometry":{"type":"Point","coordinates":[-118.24,33.75]}},
{"type":"Feature","properties":{"name":"Oakland","rank":3},"geometry":{"type":"Point","coordinates":[-122.28,37.80]}},
{"type":"Feature","properties":{"name":"New York · Newark","rank":1},"geometry":{"type":"Point","coordinates":[-74.07,40.68]}},
{"type":"Feature","properties":{"name":"Halifax","rank":3},"geometry":{"type":"Point","coordinates":[-63.57,44.65]}},
{"type":"Feature","properties":{"name":"Savannah","rank":3},"geometry":{"type":"Point","coordinates":[-81.09,32.08]}},
{"type":"Feature","properties":{"name":"Miami","rank":3},"geometry":{"type":"Point","coordinates":[-80.18,25.78]}},
{"type":"Feature","properties":{"name":"New Orleans","rank":2},"geometry":{"type":"Point","coordinates":[-90.07,29.95]}},
{"type":"Feature","properties":{"name":"Houston","rank":2},"geometry":{"type":"Point","coordinates":[-95.27,29.74]}},
{"type":"Feature","properties":{"name":"Colón","rank":1},"geometry":{"type":"Point","coordinates":[-79.90,9.36]}},
{"type":"Feature","properties":{"name":"Panama City","rank":1},"geometry":{"type":"Point","coordinates":[-79.52,8.98]}},
{"type":"Feature","properties":{"name":"Callao","rank":2},"geometry":{"type":"Point","coordinates":[-77.15,-12.06]}},
{"type":"Feature","properties":{"name":"Valparaíso","rank":3},"geometry":{"type":"Point","coordinates":[-71.63,-33.04]}},
{"type":"Feature","properties":{"name":"Santos","rank":2},"geometry":{"type":"Point","coordinates":[-46.33,-23.96]}},
{"type":"Feature","properties":{"name":"Buenos Aires","rank":3},"geometry":{"type":"Point","coordinates":[-58.37,-34.60]}},
{"type":"Feature","properties":{"name":"Cape Town","rank":1},"geometry":{"type":"Point","coordinates":[18.43,-33.92]}},
{"type":"Feature","properties":{"name":"Durban","rank":2},"geometry":{"type":"Point","coordinates":[31.04,-29.87]}},
{"type":"Feature","properties":{"name":"Mombasa","rank":2},"geometry":{"type":"Point","coordinates":[39.67,-4.04]}},
{"type":"Feature","properties":{"name":"Lagos","rank":2},"geometry":{"type":"Point","coordinates":[3.38,6.44]}}
]}
